NORAD_CAT_ID,OBJECT_NAME,OBJECT_TYPE,EPOCH,MEAN_MOTION,ECCENTRICITY,INCLINATION,RA_OF_ASC_NODE,ARG_OF_PERICENTER,MEAN_ANOMALY,BSTAR,MEAN_MOTION_DOT,MEAN_MOTION_DDOT,TLE_LINE0,TLE_LINE1,TLE_LINE2,SEMIMAJOR_AXIS,PERIOD,APOGEE,PERIGEE,DECAYED
53789.0,STARLINK-4666,PAYLOAD,2023-11-10 18:53:09,15.08846761,0.0001348,53.2159,129.2045,87.6008,272.5138,6.242e-05,7.06e-06,0.0,0 STARLINK-4666,1 53789U 22111S   23314.78691384  .00000706  00000-0  62420-4 0  9999,2 53789  53.2159 129.2045 0001348  87.6008 272.5138 15.08846761 64584,6917.86,95.437,540.657,538.792,0.0
53789.0,STARLINK-4666,PAYLOAD,2023-11-11 10:47:00,15.08842399,0.0001356,53.2162,126.2321,91.084,269.0307,1.4798e-05,-5.2e-07,0.0,0 STARLINK-4666,1 53789U 22111S   23315.44931436 -.00000052  00000-0  14798-4 0  9998,2 53789  53.2162 126.2321 0001356  91.0840 269.0307 15.08842399 65486,6917.873,95.437,540.676,538.8,0.0
53789.0,STARLINK-4666,PAYLOAD,2023-11-11 18:43:56,15.08841628,0.0001258,53.2167,124.7445,89.4277,270.6859,2.4057e-05,9.5e-07,0.0,0 STARLINK-4666,1 53789U 22111S   23315.78051748  .00000095  00000-0  24057-4 0  9999,2 53789  53.2167 124.7445 0001258  89.4277 270.6859 15.08841628 64738,6917.875,95.437,540.611,538.87,0.0
53789.0,STARLINK-4666,PAYLOAD,2023-11-12 10:37:48,15.08839039,0.0001252,53.2167,121.7708,88.3033,271.8103,6.3129e-05,7.17e-06,0.0,0 STARLINK-4666,1 53789U 22111S   23316.44291759  .00000717  00000-0  63129-4 0  9995,2 53789  53.2167 121.7708 0001252  88.3033 271.8103 15.08839039 65637,6917.883,95.438,540.614,538.882,0.0
53789.0,STARLINK-4666,PAYLOAD,2023-11-12 18:34:43,15.08844744,0.0001262,53.2169,120.2841,87.9716,272.142,8.8776e-05,1.125e-05,0.0,0 STARLINK-4666,1 53789U 22111S   23316.77411314  .00001125  00000-0  88776-4 0  9991,2 53789  53.2169 120.2841 0001262  87.9716 272.1420 15.08844744 65685,6917.866,95.437,540.604,538.858,0.0
53789.0,STARLINK-4666,PAYLOAD,2023-11-13 16:50:07,15.08843538,0.0001265,53.217,116.1209,85.9885,274.1251,0.0001006,1.314e-05,0.0,0 STARLINK-4666,1 53789U 22111S   23317.70147219  .00001314  00000-0  10060-3 0  9995,2 53789  53.2170 116.1209 0001265  85.9885 274.1251 15.08843538 65029,6917.87,95.437,540.61,538.859,0.0
53789.0,STARLINK-4666,PAYLOAD,2023-11-13 20:00:53,15.08847479,0.0001316,53.2171,115.526,82.1411,277.9731,0.00012514,1.705e-05,0.0,0 STARLINK-4666,1 53789U 22111S   23317.83394890  .00001705  00000-0  12514-3 0  9998,2 53789  53.2171 115.5260 0001316  82.1411 277.9731 15.08847479 65843,6917.858,95.437,540.633,538.812,0.0
53789.0,STARLINK-4666,PAYLOAD,2023-11-14 03:57:49,15.08838914,0.0001622,53.218,114.0403,87.2421,272.8757,4.6043e-05,4.45e-06,0.0,0 STARLINK-4666,1 53789U 22111S   23318.16515649  .00000445  00000-0  46043-4 0  9997,2 53789  53.2180 114.0403 0001622  87.2421 272.8757 15.08838914 65096,6917.884,95.438,540.871,538.627,0.0
53789.0,STARLINK-4666,PAYLOAD,2023-11-14 19:51:41,15.08837996,0.0001541,53.2196,111.0665,84.6068,275.51,-2.7717e-05,-7.29e-06,0.0,0 STARLINK-4666,1 53789U 22111S   23318.82755892 -.00000729  00000-0 -27717-4 0  9990,2 53789  53.2196 111.0665 0001541  84.6068 275.5100 15.08837996 65998,6917.887,95.438,540.818,538.685,0.0
53789.0,STARLINK-4666,PAYLOAD,2023-11-15 10:10:09,15.08836492,0.0001546,53.2178,108.3887,91.4365,268.6805,-8.4613e-06,-4.23e-06,0.0,0 STARLINK-4666,1 53789U 22111S   23319.42371937 -.00000423  00000-0 -84613-5 0  9991,2 53789  53.2178 108.3887 0001546  91.4365 268.6805 15.08836492 65281,6917.891,95.438,540.826,538.687,0.0
53789.0,STARLINK-4666,PAYLOAD,2023-11-15 13:20:55,15.08837802,0.0001556,53.2168,107.7945,90.0111,270.1059,-9.4477e-07,-3.03e-06,0.0,0 STARLINK-4666,1 53789U 22111S   23319.55619846 -.00000303  00000-0 -94477-6 0  9996,2 53789  53.2168 107.7945 0001556  90.0111 270.1059 15.08837802 66100,6917.887,95.438,540.829,538.676,0.0
53789.0,STARLINK-4666,PAYLOAD,2023-11-15 16:31:41,15.08838954,0.0001547,53.2165,107.1989,92.9672,267.1497,9.4277e-06,-1.38e-06,0.0,0 STARLINK-4666,1 53789U 22111S   23319.68867728 -.00000138  00000-0  94277-5 0  9996,2 53789  53.2165 107.1989 0001547  92.9672 267.1497 15.08838954 66125,6917.884,95.438,540.819,538.678,0.0
53789.0,STARLINK-4666,PAYLOAD,2023-11-16 16:22:28,15.08837063,0.0001481,53.2174,102.7399,89.8925,270.2237,5.7654e-05,6.3e-06,0.0,0 STARLINK-4666,1 53789U 22111S   23320.68227868  .00000630  00000-0  57654-4 0  9996,2 53789  53.2174 102.7399 0001481  89.8925 270.2237 15.08837063 65478,6917.889,95.438,540.779,538.73,0.0
53789.0,STARLINK-4666,PAYLOAD,2023-11-17 09:51:45,15.08819415,0.0001213,53.218,99.468,83.7976,276.3154,-0.00010405,-1.942e-05,0.0,0 STARLINK-4666,1 53789U 22111S   23321.41094168 -.00001942  00000-0 -10405-3 0  9994,2 53789  53.2180  99.4680 0001213  83.7976 276.3154 15.08819415 65580,6917.943,95.439,540.647,538.969,0.0
53789.0,STARLINK-4666,PAYLOAD,2023-11-17 13:02:31,15.08818843,0.0001389,53.218,98.8736,86.6207,273.4944,-0.00010775,-2.001e-05,0.0,0 STARLINK-4666,1 53789U 22111S   23321.54342361 -.00002001  00000-0 -10775-3 0  9996,2 53789  53.2180  98.8736 0001389  86.6207 273.4944 15.08818843 66409,6917.945,95.439,540.771,538.849,0.0
53789.0,STARLINK-4666,PAYLOAD,2023-11-17 17:48:41,15.08818693,0.0001377,53.2188,97.9827,84.6679,275.4471,-0.00010324,-1.93e-05,0.0,0 STARLINK-4666,1 53789U 22111S   23321.74214612 -.00001930  00000-0 -10324-3 0  9995,2 53789  53.2188  97.9827 0001377  84.6679 275.4471 15.08818693 66439,6917.946,95.439,540.763,538.858,0.0
53789.0,STARLINK-4666,PAYLOAD,2023-11-18 12:53:18,15.0882956,0.0001296,53.219,94.4155,74.9583,285.1552,0.00016953,2.41e-05,0.0,0 STARLINK-4666,1 53789U 22111S   23322.53701445  .00002410  00000-0  16953-3 0  9994,2 53789  53.2190  94.4155 0001296  74.9583 285.1552 15.08829560 65751,6917.912,95.438,540.674,538.881,0.0
53789.0,STARLINK-4666,PAYLOAD,2023-11-18 16:04:04,15.08834836,0.0001447,53.2186,93.8206,86.1632,273.9526,0.00019349,2.792e-05,0.0,0 STARLINK-4666,1 53789U 22111S   23322.66949095  .00002792  00000-0  19349-3 0  9998,2 53789  53.2186  93.8206 0001447  86.1632 273.9526 15.08834836 66573,6917.896,95.438,540.762,538.76,0.0
53789.0,STARLINK-4666,PAYLOAD,2023-11-19 01:36:22,15.08839796,0.0001157,53.218,92.0352,75.7584,284.3537,0.00022469,3.29e-05,0.0,0 STARLINK-4666,1 53789U 22111S   23323.06692739  .00003290  00000-0  22469-3 0  9994,2 53789  53.2180  92.0352 0001157  75.7584 284.3537 15.08839796 65834,6917.881,95.438,540.546,538.946,0.0
53789.0,STARLINK-4666,PAYLOAD,2023-11-19 12:44:04,15.08843646,0.0001347,53.2182,89.954,86.5004,273.6142,0.0002663,3.953e-05,0.0,0 STARLINK-4666,1 53789U 22111S   23323.53060384  .00003953  00000-0  26630-3 0  9991,2 53789  53.2182  89.9540 0001347  86.5004 273.6142 15.08843646 66707,6917.869,95.437,540.666,538.802,0.0
53789.0,STARLINK-4666,PAYLOAD,2023-11-19 15:54:50,15.08848481,0.0001317,53.2179,89.3586,80.9361,279.178,0.00030079,4.503e-05,0.0,0 STARLINK-4666,1 53789U 22111S   23323.66308019  .00004503  00000-0  30079-3 0  9999,2 53789  53.2179  89.3586 0001317  80.9361 279.1780 15.08848481 65922,6917.854,95.437,540.631,538.808,0.0
53789.0,STARLINK-4666,PAYLOAD,2023-11-20 01:27:09,15.08846567,0.0001347,53.2191,87.5732,77.4685,282.6458,9.6874e-05,1.254e-05,0.0,0 STARLINK-4666,1 53789U 22111S   23324.06052575  .00001254  00000-0  96874-4 0  9993,2 53789  53.2191  87.5732 0001347  77.4685 282.6458 15.08846567 65982,6917.86,95.437,540.657,538.793,0.0
53789.0,STARLINK-4666,PAYLOAD,2023-11-20 14:10:14,15.08844153,0.0001626,53.2196,85.198,87.7703,272.3475,-3.3514e-05,-8.21e-06,0.0,0 STARLINK-4666,1 53789U 22111S   23324.59045107 -.00000821  00000-0 -33514-4 0  9997,2 53789  53.2196  85.1980 0001626  87.7703 272.3475 15.08844153 66863,6917.868,95.437,540.858,538.608,0.0
53789.0,STARLINK-4666,PAYLOAD,2023-11-20 17:21:00,15.08849817,0.0001444,53.2187,84.6017,83.664,276.4517,1.1982e-05,-9.7e-07,0.0,0 STARLINK-4666,1 53789U 22111S   23324.72292511 -.00000097  00000-0  11982-4 0  9994,2 53789  53.2187  84.6017 0001444  83.6640 276.4517 15.08849817 66887,6917.85,95.437,540.714,538.716,0.0
53789.0,STARLINK-4666,PAYLOAD,2023-11-21 01:17:56,15.08845983,0.0001429,53.2185,83.1155,86.6048,273.5107,-4.227e-05,-9.61e-06,0.0,0 STARLINK-4666,1 53789U 22111S   23325.05412695 -.00000961  00000-0 -42270-4 0  9993,2 53789  53.2185  83.1155 0001429  86.6048 273.5107 15.08845983 66131,6917.862,95.437,540.716,538.739,0.0
53789.0,STARLINK-4666,PAYLOAD,2023-11-21 12:25:38,15.08850274,0.0001387,53.2187,81.0341,85.2556,274.8594,-4.1537e-05,-9.49e-06,0.0,0 STARLINK-4666,1 53789U 22111S   23325.51780238 -.00000949  00000-0 -41537-4 0  9996,2 53789  53.2187  81.0341 0001387  85.2556 274.8594 15.08850274 67009,6917.849,95.437,540.673,538.754,0.0
53789.0,STARLINK-4666,PAYLOAD,2023-11-21 17:11:46,15.0885816,0.0001636,53.2185,80.1419,70.3968,289.7201,2.109e-05,4.8e-07,0.0,0 STARLINK-4666,1 53789U 22111S   23325.71651482  .00000048  00000-0  21090-4 0  9996,2 53789  53.2185  80.1419 0001636  70.3968 289.7201 15.08858160 66238,6917.825,95.436,540.822,538.558,0.0
53789.0,STARLINK-4666,PAYLOAD,2023-11-22 07:30:15,15.08842899,0.0001469,53.2182,77.4656,86.5001,273.616,7.7906e-05,9.52e-06,0.0,0 STARLINK-4666,1 53789U 22111S   23326.31267869  .00000952  00000-0  77906-4 0  9996,2 53789  53.2182  77.4656 0001469  86.5001 273.6160 15.08842899 66326,6917.872,95.437,540.753,538.72,0.0
53789.0,STARLINK-4666,PAYLOAD,2023-11-22 13:51:47,15.08851352,0.0001743,53.2189,76.278,80.5412,279.5777,0.00012026,1.627e-05,0.0,0 STARLINK-4666,1 53789U 22111S   23326.57763195  .00001627  00000-0  12026-3 0  9998,2 53789  53.2189  76.2780 0001743  80.5412 279.5777 15.08851352 67169,6917.846,95.437,540.916,538.505,0.0
53789.0,STARLINK-4666,PAYLOAD,2023-11-23 12:07:12,15.08835835,0.000156,53.2189,72.1122,95.8348,264.2822,-6.791e-06,-3.96e-06,0.0,0 STARLINK-4666,1 53789U 22111S   23327.50500417 -.00000396  00000-0 -67910-5 0  9996,2 53789  53.2189  72.1122 0001560  95.8348 264.2822 15.08835835 66505,6917.893,95.438,540.837,538.679,0.0
